COSMOS 1933             
1 18958U 88020A   26054.55094963  .00003669  00000+0  17986-3 0  9994
2 18958  82.5101 264.9028 0002756 242.7110 117.3843 15.17843420 48080
SL-3 R/B                
1 19046U 88032B   26054.57702479  .00006424  00000+0  30168-3 0  9995
2 19046  97.5176  37.8826 0024183 284.6335  75.2218 15.19716178 49969
SL-16 R/B               
1 19120U 88039B   26054.39452836 -.00000101  00000+0 -24812-4 0  9992
2 19120  71.0135  98.7778 0021921 355.6300   4.4630 14.19613589956357
COSMOS 1953             
1 19210U 88050A   26054.28742661  .00010239  00000+0  37037-3 0  9994
2 19210  82.5101 172.7233 0011617 170.1328 190.0142 15.28227721 35580
SL-8 R/B                
1 19257U 88053B   26054.53322773  .00000244  00000+0  87748-4 0  9994
2 19257  74.0481 138.5594 0021011 320.0667  50.9084 14.38906535974565
COSMOS 1975             
1 19573U 88093A   26054.25158531  .00008562  00000+0  31360-3 0  9996
2 19573  82.5205 132.1736 0010871 215.1108 144.9416 15.27811656 17208
SL-14 R/B               
1 19574U 88093B   26054.46933066  .00000503  00000+0  54960-4 0  9993
2 19574  82.5282  55.3956 0022335  85.6023  74.1177 14.85637401998920
SL-16 R/B               
1 19650U 88102B   26054.63665326 -.00000213  00000+0 -83372-4 0  9998
2 19650  71.0000 181.0627 0013158  23.0663 337.1048 14.16151309924905
INTERCOSMOS 24          
1 20261U 89080A   26054.42603089  .00000626  00000+0  18449-3 0  9997
2 20261  82.6045 113.6912 1187152 325.9581  27.0534 12.59534377665003
SL-14 R/B               
1 20262U 89080C   26054.63241251  .00000596  00000+0  17823-3 0  9991
2 20262  82.5966 182.2082 1229983 216.8804 134.1277 12.50473343658394
DELTA 1 R/B             
1 20323U 89089B   26054.54962613  .00000302  00000+0  83293-4 0  9990
2 20323  97.0714 264.2364 0069475 166.1748 194.1374 14.50649946893682
ARIANE 40 R/B           
1 20443U 90005H   26054.42882068  .00000243  00000+0  90820-4 0  9993
2 20443  98.3117 115.5130 0009087 244.1712 115.8540 14.39860005890754
